NORAD_CAT_ID,OBJECT_NAME,OBJECT_TYPE,EPOCH,MEAN_MOTION,ECCENTRICITY,INCLINATION,RA_OF_ASC_NODE,ARG_OF_PERICENTER,MEAN_ANOMALY,BSTAR,MEAN_MOTION_DOT,MEAN_MOTION_DDOT,TLE_LINE0,TLE_LINE1,TLE_LINE2,SEMIMAJOR_AXIS,PERIOD,APOGEE,PERIGEE,DECAYED
52457.0,STARLINK-3899,PAYLOAD,2022-05-13 14:00:01,15.79742496,0.0001539,53.2176,230.881,34.3229,298.1865,-0.0051973,-0.00880533,0.0,0 STARLINK-3899,1 52457U 22049G   22133.58334491 -.00880533  00000-0 -51973-2 0  9994,2 52457  53.2176 230.8810 0001539  34.3229 298.1865 15.79742496  1309,6709.307,91.154,332.204,330.139,0.0
52457.0,STARLINK-3899,PAYLOAD,2022-05-13 16:00:00,15.79505055,0.0001591,53.2168,230.4642,37.4347,49.2853,-0.0045439999999999,-0.00771428,0.0,0 STARLINK-3899,1 52457U 22049G   22133.66667824 -.00771428  00000-0 -45440-2 0  9996,2 52457  53.2168 230.4642 0001591  37.4347  49.2853 15.79505055  1313,6709.979,91.168,332.912,330.776,0.0
52457.0,STARLINK-3899,PAYLOAD,2022-05-14 06:00:00,15.78481701,0.0001561,53.2174,227.5507,40.8336,123.7242,-0.0054671,-0.00874942,0.0,0 STARLINK-3899,1 52457U 22049G   22134.25001157 -.00874942  00000-0 -54671-2 0  9994,2 52457  53.2174 227.5507 0001561  40.8336 123.7242 15.78481701  1400,6712.879,91.227,335.792,333.696,0.0
52457.0,STARLINK-3899,PAYLOAD,2022-05-14 14:00:01,15.77853661,0.0001846,53.2174,225.8912,31.2014,228.2442,-0.0056487,-0.00878391,0.0,0 STARLINK-3899,1 52457U 22049G   22134.58334491 -.00878391  00000-0 -56487-2 0  9999,2 52457  53.2174 225.8912 0001846  31.2014 228.2442 15.77853661  1303,6714.66,91.263,337.765,335.285,0.0
52457.0,STARLINK-3899,PAYLOAD,2022-05-14 22:00:00,15.77224441,0.0001413,53.2175,224.23,34.976,318.603,-0.005807,-0.00877687,0.0,0 STARLINK-3899,1 52457U 22049G   22134.91667824 -.00877687  00000-0 -58070-2 0  9992,2 52457  53.2175 224.2300 0001413  34.9760 318.6030 15.77224441  1301,6716.446,91.3,339.26,337.362,0.0
52457.0,STARLINK-3899,PAYLOAD,2022-05-15 06:00:00,15.76592555,0.000179,53.2177,222.5703,26.4395,60.5174,-0.0059356,-0.00872768,0.0,0 STARLINK-3899,1 52457U 22049G   22135.25001157 -.00872768  00000-0 -59356-2 0  9994,2 52457  53.2177 222.5703 0001790  26.4395  60.5174 15.76592555  1562,6718.24,91.336,341.30800000000005,338.903,0.0
52457.0,STARLINK-3899,PAYLOAD,2022-05-15 14:00:01,15.75964353,0.0002034,53.2176,220.9153,29.1504,150.4912,-0.0061199,-0.00874933,0.0,0 STARLINK-3899,1 52457U 22049G   22135.58335648 -.00874933  00000-0 -61199-2 0  9999,2 52457  53.2176 220.9153 0002034  29.1504 150.4912 15.75964353  1305,6720.025,91.373,343.25699999999995,340.524,0.0
52457.0,STARLINK-3899,PAYLOAD,2022-05-15 22:00:00,15.75337452,0.000155,53.2174,219.2586,37.865,233.5751,-0.0063255,-0.00878981,0.0,0 STARLINK-3899,1 52457U 22049G   22135.91667824 -.00878981  00000-0 -63255-2 0  9992,2 52457  53.2174 219.2586 0001550  37.8650 233.5751 15.75337452  1302,6721.808000000001,91.409,344.715,342.631,0.0
52457.0,STARLINK-3899,PAYLOAD,2022-05-16 06:00:02,15.7470579,0.0001373,53.2175,217.6038,39.608,323.0067,-0.0064636,-0.00874037,0.0,0 STARLINK-3899,1 52457U 22049G   22136.25002315 -.00874037  00000-0 -64636-2 0  9990,2 52457  53.2175 217.6038 0001373  39.6080 323.0067 15.74705790  1721,6723.606,91.446,346.394,344.547,0.0
52457.0,STARLINK-3899,PAYLOAD,2022-05-16 14:00:01,15.74072976,0.0001786999999999,53.2175,215.9535,28.8228,64.0779,-0.006591,-0.00867769,0.0,0 STARLINK-3899,1 52457U 22049G   22136.58334491 -.00867769  00000-0 -65910-2 0  9999,2 52457  53.2175 215.9535 0001787  28.8228  64.0779 15.74072976  1306,6725.406999999997,91.482,348.474,346.071,0.0
52457.0,STARLINK-3899,PAYLOAD,2022-05-16 22:00:00,15.73275956,0.0001647,53.2176,214.301,36.5453,145.9724,-0.00082148,-0.00114727,0.0,0 STARLINK-3899,1 52457U 22049G   22136.91667824 -.00114727  00000-0 -82148-3 0  9997,2 52457  53.2176 214.3010 0001647  36.5453 145.9724 15.73275956  1827,6727.679,91.529,350.652,348.436,0.0
52457.0,STARLINK-3899,PAYLOAD,2022-05-17 06:00:00,15.73206328,0.0001797,53.2178,212.6508,34.7224,236.7635,-1.6961e-05,-3.001e-05,0.0,0 STARLINK-3899,1 52457U 22049G   22137.25001157 -.00003001  00000-0 -16961-4 0  9999,2 52457  53.2178 212.6508 0001797  34.7224 236.7635 15.73206328  1876,6727.877,91.533,350.951,348.533,0.0
52457.0,STARLINK-3899,PAYLOAD,2022-05-17 12:00:00,15.73233071,0.0001951,53.2123,211.4117,33.7731,214.5863,-0.00020697,-0.00029609,0.0,0 STARLINK-3899,1 52457U 22049G   22137.50001157 -.00029609  00000-0 -20697-3 0  9999,2 52457  53.2123 211.4117 0001951  33.7731 214.5863 15.73233071  1910,6727.801,91.531,350.978,348.353,0.0
52457.0,STARLINK-3899,PAYLOAD,2022-05-17 14:00:01,15.73241223,0.0001981,53.2127,210.9995,32.2942,328.3679,-0.0004042,-0.00057069,0.0,0 STARLINK-3899,1 52457U 22049G   22137.58335648 -.00057069  00000-0 -40420-3 0  9999,2 52457  53.2127 210.9995 0001981  32.2942 328.3679 15.73241223  1314,6727.778,91.531,350.975,348.31,0.0
52457.0,STARLINK-3899,PAYLOAD,2022-05-17 20:00:01,15.73219603,0.0001876,53.213,209.7612,29.7198,307.6293,0.00011198,0.00015137,0.0,0 STARLINK-3899,1 52457U 22049G   22137.83334491  .00015137  00000-0  11198-3 0  9990,2 52457  53.2130 209.7612 0001876  29.7198 307.6293 15.73219603  1978,6727.839,91.532,350.966,348.44199999999995,0.0
52457.0,STARLINK-3899,PAYLOAD,2022-05-17 22:00:01,15.73205631,0.0001768,53.2133,209.3481,29.4567,60.2006,0.00042745,0.00059814,0.0,0 STARLINK-3899,1 52457U 22049G   22137.91668981  .00059814  00000-0  42745-3 0  9995,2 52457  53.2133 209.3481 0001768  29.4567  60.2006 15.73205631  1305,6727.879,91.533,350.934,348.555,0.0
52457.0,STARLINK-3899,PAYLOAD,2022-05-18 14:00:01,15.7325186,0.0001998,53.2142,206.0506,27.1891,240.3802,-0.00039115,-0.00055283,0.0,0 STARLINK-3899,1 52457U 22049G   22138.58334491 -.00055283  00000-0 -39115-3 0  9990,2 52457  53.2142 206.0506 0001998  27.1891 240.3802 15.73251860  1307,6727.746999999999,91.53,350.957,348.26800000000014,0.0
52457.0,STARLINK-3899,PAYLOAD,2022-05-18 20:00:01,15.73210111,0.0001895,53.214,204.8122,23.2433,221.0253,-0.00058107,-0.00081427,0.0,0 STARLINK-3899,1 52457U 22049G   22138.83334491 -.00081427  00000-0 -58107-3 0  9999,2 52457  53.2140 204.8122 0001895  23.2433 221.0253 15.73210111  2121,6727.866,91.533,351.006,348.456,0.0
52457.0,STARLINK-3899,PAYLOAD,2022-05-18 22:00:00,15.73188702,0.000182,53.2142,204.3992,24.0627,332.4399,-0.00038735,-0.00054608,0.0,0 STARLINK-3899,1 52457U 22049G   22138.91667824 -.00054608  00000-0 -38735-3 0  9993,2 52457  53.2142 204.3992 0001820  24.0627 332.4399 15.73188702  1302,6727.927,91.534,351.017,348.5680000000001,0.0
52457.0,STARLINK-3899,PAYLOAD,2022-05-19 06:00:00,15.73185901,0.0001922,53.2143,202.7496,28.6523,56.7255,-0.00037997,-0.0005358,0.0,0 STARLINK-3899,1 52457U 22049G   22139.25001157 -.00053580  00000-0 -37997-3 0  9999,2 52457  53.2143 202.7496 0001922  28.6523  56.7255 15.73185901  2195,6727.935,91.534,351.093,348.50699999999995,0.0
52457.0,STARLINK-3899,PAYLOAD,2022-05-19 14:00:01,15.73101948,0.0002212,53.2146,201.1019,24.9552,149.377,0.00013839,0.00018765,0.0,0 STARLINK-3899,1 52457U 22049G   22139.58335648  .00018765  00000-0  13839-3 0  9993,2 52457  53.2146 201.1019 0002212  24.9552 149.3770 15.73101948  1308,6728.175,91.539,351.528,348.551,0.0
52457.0,STARLINK-3899,PAYLOAD,2022-05-19 22:00:00,15.73228872,0.000213,53.2154,199.4508,35.9341,227.2501,-0.00039022,-0.00055102,0.0,0 STARLINK-3899,1 52457U 22049G   22139.91667824 -.00055102  00000-0 -39022-3 0  9994,2 52457  53.2154 199.4508 0002130  35.9341 227.2501 15.73228872  2299,6727.813,91.532,351.111,348.245,0.0
52457.0,STARLINK-3899,PAYLOAD,2022-05-20 04:00:00,15.73216183,0.0001939,53.2155,198.2131,34.3195,205.5843,-2.2449e-05,-3.773e-05,0.0,0 STARLINK-3899,1 52457U 22049G   22140.16667824 -.00003773  00000-0 -22449-4 0  9996,2 52457  53.2155 198.2131 0001939  34.3195 205.5843 15.73216183  2330,6727.849,91.532,351.019,348.41,0.0
52457.0,STARLINK-3899,PAYLOAD,2022-05-20 14:00:01,15.73182284,0.0002153,53.2156,196.1536,22.7731,58.2911,0.00011505,0.00015544,0.0,0 STARLINK-3899,1 52457U 22049G   22140.58334491  .00015544  00000-0  11505-3 0  9990,2 52457  53.2156 196.1536 0002153  22.7731  58.2911 15.73182284  2404,6727.946,91.534,351.259,348.362,0.0
52457.0,STARLINK-3899,PAYLOAD,2022-05-20 22:00:00,15.73196587,0.0002027,53.2159,194.5021,23.5307,146.4495,-0.00027163,-0.00038566,0.0,0 STARLINK-3899,1 52457U 22049G   22140.91667824 -.00038566  00000-0 -27163-3 0  9994,2 52457  53.2159 194.5021 0002027  23.5307 146.4495 15.73196587  1302,6727.905,91.533,351.134,348.406,0.0
52457.0,STARLINK-3899,PAYLOAD,2022-05-21 06:00:00,15.72731415,0.0002229,53.2173,192.8545,22.2429,236.7263,0.0049559,0.00745225,0.0,0 STARLINK-3899,1 52457U 22049G   22141.25001157  .00745225  00000-0  49559-2 0  9990,2 52457  53.2173 192.8545 0002229  22.2429 236.7263 15.72731415  2508,6729.231,91.56,352.596,349.597,0.0
52457.0,STARLINK-3899,PAYLOAD,2022-05-21 14:00:01,15.73196697,0.0002361,53.2155,191.2049,23.8955,324.0611,0.00019049,0.00026195,0.0,0 STARLINK-3899,1 52457U 22049G   22141.58335648  .00026195  00000-0  19049-3 0  9991,2 52457  53.2155 191.2049 0002361  23.8955 324.0611 15.73196697  1301,6727.905,91.533,351.358,348.181,0.0
52457.0,STARLINK-3899,PAYLOAD,2022-05-21 20:00:01,15.73236884,0.0002177,53.2154,189.9662,24.4578,300.1326,-0.00042883,-0.00060475,0.0,0 STARLINK-3899,1 52457U 22049G   22141.83334491 -.00060475  00000-0 -42883-3 0  9997,2 52457  53.2154 189.9662 0002177  24.4578 300.1326 15.73236884  2603,6727.79,91.531,351.12,348.19,0.0
52457.0,STARLINK-3899,PAYLOAD,2022-05-21 22:00:00,15.73206425,0.0002092,53.2155,189.5534,24.9646,51.8721,-2.035e-05,-3.477e-05,0.0,0 STARLINK-3899,1 52457U 22049G   22141.91667824 -.00003477  00000-0 -20350-4 0  9990,2 52457  53.2155 189.5534 0002092  24.9646  51.8721 15.73206425  1308,6727.877,91.533,351.149,348.334,0.0
